AEROCUBE 15A            
1 45118U 19071H   22112.32431811  .00032296  00000+0  68992-3 0  9996
2 45118  51.6394 330.5473 0006884 325.5350  34.5189 15.44530568124753
HUSKYSAT-1 (HO-107)     
1 45119U 19071J   22112.03634994  .00025546  00000+0  60008-3 0  9992
2 45119  51.6399 336.0892 0008440 324.3365  35.7055 15.41815226124656
VPM                     
1 45120U 19071K   22112.30235896  .00065288  00000+0  10395-2 0  9992
2 45120  51.6354 320.0682 0005705 313.6535  46.3981 15.52637329124788
CIRIS                   
1 45121U 19071L   22113.41487802  .00016833  00000+0  41029-3 0  9993
2 45121  51.6402 326.6427 0008870 333.6707  26.3826 15.40978481124792
MAKERSAT 1              
1 45122U 19071M   22113.16035419  .00063415  00000+0  11184-2 0  9995
2 45122  51.6381 319.7584 0006933 286.0892  73.9333 15.49770366124860
2019-071N               
1 45123U 19071N   22112.01721303  .00021191  00000+0  51783-3 0  9998
2 45123  51.6415 337.4691 0007796 292.6955  67.3206 15.40742862124212
2019-071P               
1 45124U 19071P   22112.88025120  .00055753  00000+0  98363-3 0  9994
2 45124  51.6369 320.8955 0006827 286.2963  73.7275 15.49815804124811
2019-071Q               
1 45125U 19071Q   22112.35482705  .00015959  00000+0  40435-3 0  9994
2 45125  51.6411 337.4371 0008138 293.0576  66.9550 15.39845793124548
ORCA-8                  
1 45126U 19071R   22112.81149447  .00101217  00000+0  13619-2 0  9995
2 45126  51.6375 313.0730 0007602 285.1008  74.9143 15.57025654124929
ONEWEB-0013             
1 45131U 20008A   22112.41626450  .00000387  00000+0  10898-2 0  9995
2 45131  87.9234 354.6850 0002725  90.2083 269.9356 13.09349983107577
ONEWEB-0017             
1 45132U 20008B   22113.07449230  .00000705  00000+0  19822-2 0  9998
2 45132  87.8856 337.7134 0001519  73.2080 286.9214 13.10375186110169
ONEWEB-0020             
1 45133U 20008C   22113.04328063 -.00000454  00000+0 -13366-2 0  9996
2 45133  87.8856 337.7099 0000826  90.7367 269.3855 13.10371759110564
ONEWEB-0021             
1 45134U 20008D   22112.37166752  .00000423  00000+0  11744-2 0  9999
2 45134  87.8993 337.9882 0001752  85.0308 275.1020 13.10376966110003
ONEWEB-0022             
1 45135U 20008E   22113.00747181  .00000318  00000+0  87395-3 0  9991
2 45135  87.8856 337.7165 0001279  75.8698 284.2571 13.10369827110535
ONEWEB-0023             
1 45136U 20008F   22113.07136480  .00000722  00000+0  20311-2 0  9996
2 45136  87.8893 337.6888 0001933 103.3114 256.8229 13.10372982110277
ONEWEB-0024             
1 45137U 20008G   22112.35452847 -.00000399  00000+0 -11807-2 0  9997
2 45137  87.8809 337.6862 0002156  87.1237 273.0137 13.10376299109597
ONEWEB-0025             
1 45138U 20008H   22112.37324778  .00000578  00000+0  16192-2 0  9990
2 45138  87.8854 337.8817 0001830  87.6808 272.4529 13.10374679109922
ONEWEB-0026             
1 45139U 20008J   22113.29414217 -.00111357  00000+0 -31937+0 0  9992
2 45139  87.8762 322.3480 0001537  82.4141 277.7161 13.11128588113329
ONEWEB-0028             
1 45140U 20008K   22112.48643521  .00000442  00000+0  12110-2 0  9991
2 45140  87.8839 322.5748 0002587  85.0044 275.1379 13.11416278109832
ONEWEB-0032             
1 45141U 20008L   22113.38146458  .00000676  00000+0  19003-2 0  9996
2 45141  87.8832 337.6333 0001843  79.9560 280.1775 13.10372083110643
ONEWEB-0033             
1 45142U 20008M   22112.36233166 -.00000088  00000+0 -28840-3 0  9996
2 45142  87.8837 337.7686 0001700  78.5197 281.6121 13.10375252109565
ONEWEB-0035             
1 45143U 20008N   22112.39505308  .00000335  00000+0  92357-3 0  9997
2 45143  87.8857 337.8607 0001493  89.6992 270.4306 13.10369330109298
ONEWEB-0036             
1 45144U 20008P   22113.14927959  .00000666  00000+0  18709-2 0  9997
2 45144  87.8856 337.6643 0001713  94.3654 265.7669 13.10375152110682
ONEWEB-0038             
1 45145U 20008Q   22113.29203190 -.00000442  00000+0 -12831-2 0  9992
2 45145  87.8853 322.4247 0002691  77.4239 282.7190 13.11410792112433
ONEWEB-0039             
1 45146U 20008R   22113.35962693 -.00000701  00000+0 -20456-2 0  9990
2 45146  87.8855 337.6632 0002340  84.4918 275.6476 13.10374521110428
ONEWEB-0040             
1 45147U 20008S   22113.35185635 -.00000372  00000+0 -11028-2 0  9993
2 45147  87.8856 337.7123 0002364  79.2054 280.9340 13.10374318110136
ONEWEB-0043             
1 45149U 20008U   22113.35343655 -.00000327  00000+0 -97194-3 0  9992
2 45149  87.8859 337.6652 0002189  98.0718 262.0658 13.10380471110442
ONEWEB-0044             
1 45150U 20008V   22113.38301967  .00000688  00000+0  19334-2 0  9994
2 45150  87.8854 337.6626 0002143  87.2137 272.9236 13.10373099110737
ONEWEB-0045             
1 45151U 20008W   22112.30688483 -.00000510  00000+0 -14744-2 0  9993
2 45151  87.8810 322.6155 0001825  79.3264 280.8069 13.11417310111593
ONEWEB-0047             
1 45152U 20008X   22113.37523937  .00000534  00000+0  14919-2 0  9992
2 45152  87.8856 337.6605 0001857  89.9155 270.2185 13.10377348110474
ONEWEB-0048             
1 45153U 20008Y   22113.14149226  .00000553  00000+0  15490-2 0  9999
2 45153  87.8861 337.7054 0001912  94.3824 265.7522 13.10376544110038
ONEWEB-0049             
1 45154U 20008Z   22113.06667728  .00000605  00000+0  16976-2 0  9991
2 45154  87.8853 337.6974 0001805  99.3440 260.7891 13.10376281110256
ONEWEB-0051             
1 45155U 20008AA  22113.29648996 -.00000606  00000+0 -17466-2 0  9991
2 45155  87.8785 322.3348 0001750  82.1104 278.0222 13.11414864113189
ONEWEB-0052             
1 45156U 20008AB  22112.37634150  .00000590  00000+0  16528-2 0  9995
2 45156  87.8850 337.8217 0001996 118.8698 241.2630 13.10376158109290
ONEWEB-0053             
1 45157U 20008AC  22112.35765239 -.00000261  00000+0 -78393-3 0  9993
2 45157  87.8862 337.8752 0002075  84.3657 275.7707 13.10375399109269
ONEWEB-0054             
1 45158U 20008AD  22113.38615668  .00000534  00000+0  14934-2 0  9999
2 45158  87.8853 337.6655 0001650  77.4470 282.6841 13.10374326110272
ONEWEB-0056             
1 45159U 20008AE  22112.37478914  .00000526  00000+0  14704-2 0  9995
2 45159  87.8860 337.8613 0001798  90.1701 269.9632 13.10375946109531
ONEWEB-0057             
1 45160U 20008AF  22113.37368179  .00000633  00000+0  17762-2 0  9995
2 45160  87.8858 337.6416 0001966  85.8435 274.2917 13.10378089110326
ONEWEB-0058             
1 45161U 20008AG  22112.36854594  .00000318  00000+0  87574-3 0  9994
2 45161  87.8865 337.8713 0001997  82.1993 277.9361 13.10379931109777
ONEWEB-0059             
1 45162U 20008AH  22112.36543520  .00000092  00000+0  22853-3 0  9997
2 45162  87.8861 337.8654 0001858  79.7255 280.4082 13.10377708109675
ONEWEB-0062             
1 45163U 20008AJ  22112.39194882  .00000469  00000+0  13085-2 0  9998
2 45163  87.8860 337.8511 0001717  88.8086 271.3238 13.10371007109548
ONEWEB-0065             
1 45164U 20008AK  22112.37012723  .00000336  00000+0  92703-3 0  9998
2 45164  87.8886 337.7866 0001842  87.6320 272.5019 13.10376042109236
STARLINK-1138           
1 45178U 20012A   22113.50625687 -.00000629  00000+0 -23335-4 0  9996
2 45178  53.0555 284.1139 0001394  88.7543 271.3606 15.06388076120732
STARLINK-1143           
1 45179U 20012B   22112.78011632  .00001552  00000+0  12308-3 0  9996
2 45179  53.0545 287.3646 0001596  66.8882 293.2275 15.06403353120626
STARLINK-1192           
1 45180U 20012C   22112.47616252  .00012426  00000+0  81416-3 0  9991
2 45180  53.0526 288.4092 0001419 163.6621 196.4414 15.08071773121231
STARLINK-1200           
1 45181U 20012D   22113.49519149 -.00001517  00000+0 -82975-4 0  9995
2 45181  53.0563 284.1636 0001447  64.5193 295.5945 15.06392830120736
STARLINK-1201           
1 45182U 20012E   22113.11738043  .00000496  00000+0  52165-4 0  9992
2 45182  53.0520 265.8679 0001661  59.3966 300.7187 15.06400345120964
STARLINK-1202           
1 45183U 20012F   22113.46570543  .00000518  00000+0  53683-4 0  9991
2 45183  53.0546 284.2975 0001472  65.4421 294.6721 15.06399744120720
STARLINK-1205           
1 45184U 20012G   22113.12475023 -.00000347  00000+0 -43715-5 0  9990
2 45184  53.0550 265.8225 0001513  60.2573 299.8567 15.06400658120931
STARLINK-1216           
1 45185U 20012H   22112.59582182  .00001029  00000+0  87937-4 0  9995
2 45185  53.0543 288.1989 0001468  80.1898 279.9256 15.06405041120608
STARLINK-1224           
1 45186U 20012J   22113.47307476  .00000712  00000+0  66700-4 0  9998
2 45186  53.0548 284.2621 0001363  53.7117 306.3997 15.06402089120738
STARLINK-1225           
1 45187U 20012K   22113.47676758  .00001714  00000+0  13392-3 0  9992
2 45187  53.0556 284.2448 0001676  58.8068 301.3085 15.06396620120481
STARLINK-1228           
1 45188U 20012L   22112.51104422  .00000569  00000+0  57082-4 0  9993
2 45188  53.0546 248.5892 0001449  66.6249 293.4893 15.06399762121741
STARLINK-1230           
1 45189U 20012M   22112.88332385  .00002651  00000+0  19678-3 0  9997
2 45189  53.0555 286.9146 0001573  68.3733 291.7424 15.06406687120357
STARLINK-1234           
1 45190U 20012N   22113.49888054 -.00000678  00000+0 -26626-4 0  9997
2 45190  53.0554 244.1496 0001823  37.1510 322.9605 15.06395247120961
STARLINK-1236           
1 45191U 20012P   22113.48782405  .00000060  00000+0  22941-4 0  9999
2 45191  53.0556 284.1963 0001656  59.1372 300.9779 15.06398108120733
STARLINK-1237           
1 45192U 20012Q   22113.19663017  .00002047  00000+0  15625-3 0  9992
2 45192  53.0528 285.4894 0001614  63.0570 297.0584 15.06405456120407
STARLINK-1239           
1 45193U 20012R   22113.18557273  .00002338  00000+0  17579-3 0  9991
2 45193  53.0542 285.5503 0001706  53.3134 306.8011 15.06407978120407
STARLINK-1240           
1 45194U 20012S   22113.45464386  .00005606  00000+0  39487-3 0  9997
2 45194  53.0535 284.3534 0002128  53.8887 306.2299 15.06408809120440
